IRIDIUM 921 [-]         
1 24873U 97034E   23262.70620178  .00020542  00000+0  81828-3 0  9995
2 24873  86.3852  60.7895 0005160 184.4964 175.6236 15.25105716433914
IRIDIUM 22 [-]          
1 24907U 97043E   23262.38283424  .00000534  00000+0  18120-3 0  9990
2 24907  86.4013  20.7899 0002107  94.3968 265.7469 14.34905366365419
DUMMY MASS 1 [-]        
1 24925U 97048A   23262.01366914  .00000730  00000+0  80816-4 0  9991
2 24925  86.3304  69.6873 0004902 231.8009 128.2774 14.85822291410722
DUMMY MASS 2 [-]        
1 24926U 97048B   23262.41049456  .00000720  00000+0  80095-4 0  9993
2 24926  86.3303  71.0007 0005506 246.2694 113.7953 14.85584576410571
IRIDIUM 29 [-]          
1 24944U 97051A   23262.68104085  .00000580  00000+0  19553-3 0  9990
2 24944  86.3948  50.6573 0002141  98.0360 262.1080 14.35369330362156
IRIDIUM 33 [-]          
1 24946U 97051C   23262.67168975  .00000499  00000+0  17140-3 0  9998
2 24946  86.3865  49.9401 0007952  10.6022 349.5340 14.34109641361500
IRIDIUM 28 [-]          
1 24948U 97051E   23262.44531091  .00000717  00000+0  23884-3 0  9993
2 24948  86.3958  48.6373 0002186  81.0717 279.0728 14.36290328362486
